[{"OBJECT_NAME":"STARLINK-2663","OBJECT_ID":"2021-040R","EPOCH":"2026-03-09T13:58:44.269248","MEAN_MOTION":15.30220923,"ECCENTRICITY":0.0001136,"INCLINATION":53.1599,"RA_OF_ASC_NODE":178.6243,"ARG_OF_PERICENTER":79.1084,"MEAN_ANOMALY":281.0044,"EPHEMERIS_TYPE":0,"CLASSIFICATION_TYPE":"U","NORAD_CAT_ID":48443,"ELEMENT_SET_NO":999,"REV_AT_EPOCH":26666,"BSTAR":0.00046869,"MEAN_MOTION_DOT":0.00013556,"MEAN_MOTION_DDOT":0},{"OBJECT_NAME":"CZ-4 DEB","OBJECT_ID":"2006-046L","EPOCH":"2026-03-09T05:26:57.251328","MEAN_MOTION":15.20206122,"ECCENTRICITY":0.00567956,"INCLINATION":97.8211,"RA_OF_ASC_NODE":163.0679,"ARG_OF_PERICENTER":229.3561,"MEAN_ANOMALY":130.2727,"EPHEMERIS_TYPE":0,"CLASSIFICATION_TYPE":"U","NORAD_CAT_ID":35378,"ELEMENT_SET_NO":999,"REV_AT_EPOCH":2541,"BSTAR":0.0021311714,"MEAN_MOTION_DOT":0.00048409,"MEAN_MOTION_DDOT":0}]
